<?xml version="1.0" encoding="UTF-8"?>
<gpx version="1.1" creator="audit" xmlns="http://www.topografix.com/GPX/1/1">
<wpt lat="43.17" lon="44.81"><name>WP01</name><desc>Тестовая точка WP01</desc></wpt>
<wpt lat="43.185" lon="44.84"><name>WP02</name><desc>Тестовая точка WP02</desc></wpt>
<wpt lat="43.2" lon="44.875"><name>WP03</name><desc>Тестовая точка WP03</desc></wpt>
<wpt lat="43.19" lon="44.91"><name>WP04</name><desc>Тестовая точка WP04</desc></wpt>
<wpt lat="43.165" lon="44.93"><name>WP05</name><desc>Тестовая точка WP05</desc></wpt>
<wpt lat="43.16" lon="44.8"><name>Старт</name><desc>Тестовая точка Старт</desc></wpt>
</gpx>
