<?xml version="1.0" encoding="UTF-8"?><kml xmlns="http://www.opengis.net/kml/2.2"><Document><Placemark><name>WP01</name><Point><coordinates>44.81,43.17,0</coordinates></Point></Placemark><Placemark><name>WP02</name><Point><coordinates>44.84,43.185,0</coordinates></Point></Placemark><Placemark><name>WP03</name><Point><coordinates>44.875,43.2,0</coordinates></Point></Placemark><Placemark><name>WP04</name><Point><coordinates>44.91,43.19,0</coordinates></Point></Placemark><Placemark><name>WP05</name><Point><coordinates>44.93,43.165,0</coordinates></Point></Placemark><Placemark><name>Старт</name><Point><coordinates>44.8,43.16,0</coordinates></Point></Placemark><Placemark><name>KML линия</name><LineString><coordinates>44.800300,43.160000,0 44.801709,43.161939,0 44.803045,43.163106,0 44.804876,43.164916,0 44.806919,43.166963,0 44.808529,43.168170,0 44.809803,43.169839,0 44.814748,43.172797,0 44.820126,43.174914,0 44.825287,43.177275,0 44.829956,43.180274,0 44.834700,43.182497,0 44.839959,43.184728,0 44.846122,43.187729,0 44.851789,43.190081,0 44.857246,43.192204,0 44.863139,43.195165,0 44.869365,43.197659,0 44.875251,43.199702,0 44.880706,43.198422,0 44.886380,43.196890,0 44.892546,43.194725,0 44.898633,43.193339,0 44.904205,43.191937,0 44.909711,43.189770,0 44.913213,43.185755,0 44.916921,43.181963,0 44.920193,43.177332,0 44.923133,43.173177,0 44.926417,43.169465,0 44.930129,43.164909,0</coordinates></LineString></Placemark></Document></kml>