OziExplorer Track Point File Version 2.1
WGS 84
Altitude is in Feet
Reserved 3
0,2,255,Ozi òğåê,0,0,2,8421376
301
43.160000,44.800300,0,1640.4,46285.4166667,20-Sep-26,10:00:00
43.160226,44.800464,0,1649.2,46285.4168056,20-Sep-26,10:00:12
43.160450,44.800621,0,1657.9,46285.4169444,20-Sep-26,10:00:24
43.160669,44.800773,0,1666.6,46285.4170833,20-Sep-26,10:00:36
43.160882,44.800919,0,1675.3,46285.4172222,20-Sep-26,10:00:48
43.161086,44.801060,0,1684.0,46285.4173611,20-Sep-26,10:01:00
43.161280,44.801196,0,1692.6,46285.4175000,20-Sep-26,10:01:12
43.161462,44.801329,0,1701.1,46285.4176389,20-Sep-26,10:01:24
43.161633,44.801458,0,1709.6,46285.4177778,20-Sep-26,10:01:36
43.161792,44.801584,0,1718.0,46285.4179167,20-Sep-26,10:01:48
43.161939,44.801709,0,1726.3,46285.4180556,20-Sep-26,10:02:00
43.162076,44.801833,0,1734.5,46285.4181944,20-Sep-26,10:02:12
43.162203,44.801957,0,1742.6,46285.4183333,20-Sep-26,10:02:24
43.162321,44.802082,0,1750.6,46285.4184722,20-Sep-26,10:02:36
43.162434,44.802208,0,1758.5,46285.4186111,20-Sep-26,10:02:48
43.162542,44.802338,0,1766.3,46285.4187500,20-Sep-26,10:03:00
43.162649,44.802470,0,1773.9,46285.4188889,20-Sep-26,10:03:12
43.162757,44.802606,0,1781.3,46285.4190278,20-Sep-26,10:03:24
43.162867,44.802747,0,1788.6,46285.4191667,20-Sep-26,10:03:36
43.162983,44.802894,0,1795.8,46285.4193056,20-Sep-26,10:03:48
43.163106,44.803045,0,1802.7,46285.4194444,20-Sep-26,10:04:00
43.163239,44.803203,0,1809.5,46285.4195833,20-Sep-26,10:04:12
43.163381,44.803367,0,1816.1,46285.4197222,20-Sep-26,10:04:24
43.163535,44.803536,0,1822.5,46285.4198611,20-Sep-26,10:04:36
43.163701,44.803712,0,1828.7,46285.4200000,20-Sep-26,10:04:48
43.163879,44.803894,0,1834.7,46285.4201389,20-Sep-26,10:05:00
43.164068,44.804081,0,1840.5,46285.4202778,20-Sep-26,10:05:12
43.164268,44.804274,0,1846.0,46285.4204167,20-Sep-26,10:05:24
43.164477,44.804471,0,1851.3,46285.4205556,20-Sep-26,10:05:36
43.164694,44.804672,0,1856.4,46285.4206944,20-Sep-26,10:05:48
43.164916,44.804876,0,1861.3,46285.4208333,20-Sep-26,10:06:00
43.165142,44.805083,0,1865.9,46285.4209722,20-Sep-26,10:06:12
43.165368,44.805291,0,1870.2,46285.4211111,20-Sep-26,10:06:24
43.165593,44.805501,0,1874.3,46285.4212500,20-Sep-26,10:06:36
43.165815,44.805710,0,1878.2,46285.4213889,20-Sep-26,10:06:48
43.166030,44.805918,0,1881.7,46285.4215278,20-Sep-26,10:07:00
43.166238,44.806125,0,1885.0,46285.4216667,20-Sep-26,10:07:12
43.166436,44.806329,0,1888.1,46285.4218056,20-Sep-26,10:07:24
43.166624,44.806530,0,1890.8,46285.4219444,20-Sep-26,10:07:36
43.166800,44.806727,0,1893.3,46285.4220833,20-Sep-26,10:07:48
43.166963,44.806919,0,1895.5,46285.4222222,20-Sep-26,10:08:00
43.167116,44.807107,0,1897.4,46285.4223611,20-Sep-26,10:08:12
43.167256,44.807288,0,1899.1,46285.4225000,20-Sep-26,10:08:24
43.167387,44.807464,0,1900.4,46285.4226389,20-Sep-26,10:08:36
43.167509,44.807633,0,1901.5,46285.4227778,20-Sep-26,10:08:48
43.167624,44.807797,0,1902.2,46285.4229167,20-Sep-26,10:09:00
43.167734,44.807954,0,1902.7,46285.4230556,20-Sep-26,10:09:12
43.167841,44.808106,0,1902.9,46285.4231944,20-Sep-26,10:09:24
43.167948,44.808252,0,1902.8,46285.4233333,20-Sep-26,10:09:36
43.168057,44.808393,0,1902.4,46285.4234722,20-Sep-26,10:09:48
43.168170,44.808529,0,1901.7,46285.4236111,20-Sep-26,10:10:00
43.168290,44.808661,0,1900.7,46285.4237500,20-Sep-26,10:10:12
43.168418,44.808790,0,1899.4,46285.4238889,20-Sep-26,10:10:24
43.168557,44.808917,0,1897.9,46285.4240278,20-Sep-26,10:10:36
43.168706,44.809042,0,1896.0,46285.4241667,20-Sep-26,10:10:48
43.168867,44.809166,0,1893.9,46285.4243056,20-Sep-26,10:11:00
43.169040,44.809290,0,1891.5,46285.4244444,20-Sep-26,10:11:12
43.169224,44.809415,0,1888.8,46285.4245833,20-Sep-26,10:11:24
43.169420,44.809541,0,1885.8,46285.4247222,20-Sep-26,10:11:36
43.169625,44.809670,0,1882.6,46285.4248611,20-Sep-26,10:11:48
43.169839,44.809803,0,1879.1,46285.4250000,20-Sep-26,10:12:00
43.170143,44.810273,0,1875.3,46285.4251389,20-Sep-26,10:12:12
43.170450,44.810747,0,1871.3,46285.4252778,20-Sep-26,10:12:24
43.170760,44.811227,0,1867.0,46285.4254167,20-Sep-26,10:12:36
43.171069,44.811712,0,1862.4,46285.4255556,20-Sep-26,10:12:48
43.171376,44.812203,0,1857.7,46285.4256944,20-Sep-26,10:13:00
43.171678,44.812700,0,1852.6,46285.4258333,20-Sep-26,10:13:12
43.171972,44.813203,0,1847.4,46285.4259722,20-Sep-26,10:13:24
43.172258,44.813712,0,1841.9,46285.4261111,20-Sep-26,10:13:36
43.172533,44.814228,0,1836.1,46285.4262500,20-Sep-26,10:13:48
43.172797,44.814748,0,1830.2,46285.4263889,20-Sep-26,10:14:00
43.173049,44.815274,0,1824.1,46285.4265278,20-Sep-26,10:14:12
43.173290,44.815804,0,1817.7,46285.4266667,20-Sep-26,10:14:24
43.173518,44.816339,0,1811.2,46285.4268056,20-Sep-26,10:14:36
43.173736,44.816877,0,1804.4,46285.4269444,20-Sep-26,10:14:48
43.173945,44.817417,0,1797.5,46285.4270833,20-Sep-26,10:15:00
43.174146,44.817959,0,1790.4,46285.4272222,20-Sep-26,10:15:12
43.174341,44.818501,0,1783.1,46285.4273611,20-Sep-26,10:15:24
43.174532,44.819044,0,1775.7,46285.4275000,20-Sep-26,10:15:36
43.174722,44.819586,0,1768.2,46285.4276389,20-Sep-26,10:15:48
43.174914,44.820126,0,1760.4,46285.4277778,20-Sep-26,10:16:00
43.175108,44.820663,0,1752.6,46285.4279167,20-Sep-26,10:16:12
43.175309,44.821198,0,1744.6,46285.4280556,20-Sep-26,10:16:24
43.175516,44.821728,0,1736.5,46285.4281944,20-Sep-26,10:16:36
43.175734,44.822253,0,1728.3,46285.4283333,20-Sep-26,10:16:48
43.175962,44.822773,0,1720.1,46285.4284722,20-Sep-26,10:17:00
43.176201,44.823288,0,1711.7,46285.4286111,20-Sep-26,10:17:12
43.176452,44.823797,0,1703.2,46285.4287500,20-Sep-26,10:17:24
43.176715,44.824300,0,1694.7,46285.4288889,20-Sep-26,10:17:36
43.176990,44.824797,0,1686.1,46285.4290278,20-Sep-26,10:17:48
43.177275,44.825287,0,1677.5,46285.4291667,20-Sep-26,10:18:00
43.177569,44.825772,0,1668.8,46285.4293056,20-Sep-26,10:18:12
43.177870,44.826252,0,1660.1,46285.4294444,20-Sep-26,10:18:24
43.178176,44.826726,0,1651.3,46285.4295833,20-Sep-26,10:18:36
43.178485,44.827195,0,1642.6,46285.4297222,20-Sep-26,10:18:48
43.178795,44.827661,0,1633.8,46285.4298611,20-Sep-26,10:19:00
43.179103,44.828123,0,1625.1,46285.4300000,20-Sep-26,10:19:12
43.179407,44.828583,0,1616.4,46285.4301389,20-Sep-26,10:19:24
43.179705,44.829041,0,1607.7,46285.4302778,20-Sep-26,10:19:36
43.179994,44.829498,0,1599.0,46285.4304167,20-Sep-26,10:19:48
43.180274,44.829956,0,1590.4,46285.4305556,20-Sep-26,10:20:00
43.180543,44.830414,0,1581.8,46285.4306944,20-Sep-26,10:20:12
43.180800,44.830874,0,1573.3,46285.4308333,20-Sep-26,10:20:24
43.181045,44.831336,0,1564.9,46285.4309722,20-Sep-26,10:20:36
43.181279,44.831802,0,1556.6,46285.4311111,20-Sep-26,10:20:48
43.181501,44.832272,0,1548.4,46285.4312500,20-Sep-26,10:21:00
43.181713,44.832747,0,1540.2,46285.4313889,20-Sep-26,10:21:12
43.181917,44.833226,0,1532.2,46285.4315278,20-Sep-26,10:21:24
43.182114,44.833712,0,1524.3,46285.4316667,20-Sep-26,10:21:36
43.182307,44.834203,0,1516.5,46285.4318056,20-Sep-26,10:21:48
43.182497,44.834700,0,1508.9,46285.4319444,20-Sep-26,10:22:00
43.182688,44.835203,0,1501.4,46285.4320833,20-Sep-26,10:22:12
43.182881,44.835713,0,1494.0,46285.4322222,20-Sep-26,10:22:24
43.183078,44.836228,0,1486.8,46285.4323611,20-Sep-26,10:22:36
43.183283,44.836749,0,1479.8,46285.4325000,20-Sep-26,10:22:48
43.183496,44.837275,0,1473.0,46285.4326389,20-Sep-26,10:23:00
43.183719,44.837805,0,1466.4,46285.4327778,20-Sep-26,10:23:12
43.183954,44.838340,0,1459.9,46285.4329167,20-Sep-26,10:23:24
43.184200,44.838877,0,1453.7,46285.4330556,20-Sep-26,10:23:36
43.184458,44.839417,0,1447.6,46285.4331944,20-Sep-26,10:23:48
43.184728,44.839959,0,1441.8,46285.4333333,20-Sep-26,10:24:00
43.185009,44.840585,0,1436.2,46285.4334722,20-Sep-26,10:24:12
43.185299,44.841211,0,1430.8,46285.4336111,20-Sep-26,10:24:24
43.185598,44.841837,0,1425.6,46285.4337500,20-Sep-26,10:24:36
43.185902,44.842460,0,1420.7,46285.4338889,20-Sep-26,10:24:48
43.186210,44.843081,0,1416.1,46285.4340278,20-Sep-26,10:25:00
43.186520,44.843698,0,1411.7,46285.4341667,20-Sep-26,10:25:12
43.186829,44.844311,0,1407.5,46285.4343056,20-Sep-26,10:25:24
43.187135,44.844920,0,1403.6,46285.4344444,20-Sep-26,10:25:36
43.187436,44.845524,0,1400.0,46285.4345833,20-Sep-26,10:25:48
43.187729,44.846122,0,1396.6,46285.4347222,20-Sep-26,10:26:00
43.188013,44.846714,0,1393.5,46285.4348611,20-Sep-26,10:26:12
43.188286,44.847300,0,1390.7,46285.4350000,20-Sep-26,10:26:24
43.188548,44.847880,0,1388.1,46285.4351389,20-Sep-26,10:26:36
43.188799,44.848454,0,1385.8,46285.4352778,20-Sep-26,10:26:48
43.189037,44.849022,0,1383.9,46285.4354167,20-Sep-26,10:27:00
43.189264,44.849584,0,1382.1,46285.4355556,20-Sep-26,10:27:12
43.189480,44.850142,0,1380.7,46285.4356944,20-Sep-26,10:27:24
43.189687,44.850695,0,1379.6,46285.4358333,20-Sep-26,10:27:36
43.189887,44.851244,0,1378.8,46285.4359722,20-Sep-26,10:27:48
43.190081,44.851789,0,1378.2,46285.4361111,20-Sep-26,10:28:00
43.190272,44.852332,0,1378.0,46285.4362500,20-Sep-26,10:28:12
43.190462,44.852874,0,1378.0,46285.4363889,20-Sep-26,10:28:24
43.190654,44.853414,0,1378.3,46285.4365278,20-Sep-26,10:28:36
43.190849,44.853955,0,1379.0,46285.4366667,20-Sep-26,10:28:48
43.191051,44.854496,0,1379.9,46285.4368056,20-Sep-26,10:29:00
43.191260,44.855040,0,1381.1,46285.4369444,20-Sep-26,10:29:12
43.191479,44.855586,0,1382.6,46285.4370833,20-Sep-26,10:29:24
43.191709,44.856135,0,1384.3,46285.4372222,20-Sep-26,10:29:36
43.191950,44.856688,0,1386.4,46285.4373611,20-Sep-26,10:29:48
43.192204,44.857246,0,1388.7,46285.4375000,20-Sep-26,10:30:00
43.192469,44.857809,0,1391.4,46285.4376389,20-Sep-26,10:30:12
43.192745,44.858378,0,1394.3,46285.4377778,20-Sep-26,10:30:24
43.193031,44.858953,0,1397.4,46285.4379167,20-Sep-26,10:30:36
43.193327,44.859533,0,1400.9,46285.4380556,20-Sep-26,10:30:48
43.193629,44.860120,0,1404.6,46285.4381944,20-Sep-26,10:31:00
43.193936,44.860713,0,1408.5,46285.4383333,20-Sep-26,10:31:12
43.194245,44.861312,0,1412.8,46285.4384722,20-Sep-26,10:31:24
43.194555,44.861916,0,1417.2,46285.4386111,20-Sep-26,10:31:36
43.194862,44.862525,0,1422.0,46285.4387500,20-Sep-26,10:31:48
43.195165,44.863139,0,1426.9,46285.4388889,20-Sep-26,10:32:00
43.195462,44.863757,0,1432.2,46285.4390278,20-Sep-26,10:32:12
43.195750,44.864378,0,1437.6,46285.4391667,20-Sep-26,10:32:24
43.196028,44.865002,0,1443.3,46285.4393056,20-Sep-26,10:32:36
43.196295,44.865627,0,1449.1,46285.4394444,20-Sep-26,10:32:48
43.196550,44.866253,0,1455.2,46285.4395833,20-Sep-26,10:33:00
43.196793,44.866879,0,1461.5,46285.4397222,20-Sep-26,10:33:12
43.197025,44.867504,0,1468.0,46285.4398611,20-Sep-26,10:33:24
43.197245,44.868127,0,1474.7,46285.4400000,20-Sep-26,10:33:36
43.197456,44.868748,0,1481.6,46285.4401389,20-Sep-26,10:33:48
43.197659,44.869365,0,1488.7,46285.4402778,20-Sep-26,10:34:00
43.197855,44.869979,0,1495.9,46285.4404167,20-Sep-26,10:34:12
43.198047,44.870587,0,1503.3,46285.4405556,20-Sep-26,10:34:24
43.198237,44.871191,0,1510.8,46285.4406944,20-Sep-26,10:34:36
43.198428,44.871789,0,1518.5,46285.4408333,20-Sep-26,10:34:48
43.198622,44.872381,0,1526.3,46285.4409722,20-Sep-26,10:35:00
43.198820,44.872967,0,1534.2,46285.4411111,20-Sep-26,10:35:12
43.199026,44.873546,0,1542.3,46285.4412500,20-Sep-26,10:35:24
43.199241,44.874120,0,1550.5,46285.4413889,20-Sep-26,10:35:36
43.199466,44.874688,0,1558.7,46285.4415278,20-Sep-26,10:35:48
43.199702,44.875251,0,1567.1,46285.4416667,20-Sep-26,10:36:00
43.199534,44.875808,0,1575.5,46285.4418056,20-Sep-26,10:36:12
43.199378,44.876361,0,1584.0,46285.4419444,20-Sep-26,10:36:24
43.199233,44.876910,0,1592.6,46285.4420833,20-Sep-26,10:36:36
43.199099,44.877455,0,1601.2,46285.4422222,20-Sep-26,10:36:48
43.198974,44.877998,0,1609.9,46285.4423611,20-Sep-26,10:37:00
43.198856,44.878540,0,1618.6,46285.4425000,20-Sep-26,10:37:12
43.198745,44.879080,0,1627.3,46285.4426389,20-Sep-26,10:37:24
43.198637,44.879621,0,1636.1,46285.4427778,20-Sep-26,10:37:36
43.198530,44.880162,0,1644.8,46285.4429167,20-Sep-26,10:37:48
43.198422,44.880706,0,1653.6,46285.4430556,20-Sep-26,10:38:00
43.198311,44.881252,0,1662.3,46285.4431944,20-Sep-26,10:38:12
43.198193,44.881801,0,1671.0,46285.4433333,20-Sep-26,10:38:24
43.198068,44.882354,0,1679.7,46285.4434722,20-Sep-26,10:38:36
43.197934,44.882912,0,1688.3,46285.4436111,20-Sep-26,10:38:48
43.197789,44.883476,0,1696.9,46285.4437500,20-Sep-26,10:39:00
43.197633,44.884045,0,1705.4,46285.4438889,20-Sep-26,10:39:12
43.197464,44.884619,0,1713.8,46285.4440278,20-Sep-26,10:39:24
43.197284,44.885200,0,1722.2,46285.4441667,20-Sep-26,10:39:36
43.197092,44.885787,0,1730.5,46285.4443056,20-Sep-26,10:39:48
43.196890,44.886380,0,1738.6,46285.4444444,20-Sep-26,10:40:00
43.196679,44.886979,0,1746.7,46285.4445833,20-Sep-26,10:40:12
43.196461,44.887583,0,1754.6,46285.4447222,20-Sep-26,10:40:24
43.196238,44.888192,0,1762.4,46285.4448611,20-Sep-26,10:40:36
43.196012,44.888806,0,1770.1,46285.4450000,20-Sep-26,10:40:48
43.195786,44.889424,0,1777.6,46285.4451389,20-Sep-26,10:41:00
43.195561,44.890045,0,1785.0,46285.4452778,20-Sep-26,10:41:12
43.195341,44.890669,0,1792.2,46285.4454167,20-Sep-26,10:41:24
43.195127,44.891294,0,1799.3,46285.4455556,20-Sep-26,10:41:36
43.194921,44.891920,0,1806.2,46285.4456944,20-Sep-26,10:41:48
43.194725,44.892546,0,1812.9,46285.4458333,20-Sep-26,10:42:00
43.194540,44.893171,0,1819.4,46285.4459722,20-Sep-26,10:42:12
43.194367,44.893795,0,1825.7,46285.4461111,20-Sep-26,10:42:24
43.194205,44.894415,0,1831.8,46285.4462500,20-Sep-26,10:42:36
43.194056,44.895033,0,1837.6,46285.4463889,20-Sep-26,10:42:48
43.193917,44.895646,0,1843.3,46285.4465278,20-Sep-26,10:43:00
43.193789,44.896254,0,1848.7,46285.4466667,20-Sep-26,10:43:12
43.193668,44.896858,0,1853.9,46285.4468056,20-Sep-26,10:43:24
43.193555,44.897456,0,1858.9,46285.4469444,20-Sep-26,10:43:36
43.193446,44.898047,0,1863.6,46285.4470833,20-Sep-26,10:43:48
43.193339,44.898633,0,1868.1,46285.4472222,20-Sep-26,10:44:00
43.193231,44.899213,0,1872.3,46285.4473611,20-Sep-26,10:44:12
43.193122,44.899787,0,1876.3,46285.4475000,20-Sep-26,10:44:24
43.193007,44.900355,0,1880.0,46285.4476389,20-Sep-26,10:44:36
43.192886,44.900917,0,1883.4,46285.4477778,20-Sep-26,10:44:48
43.192755,44.901474,0,1886.6,46285.4479167,20-Sep-26,10:45:00
43.192615,44.902027,0,1889.5,46285.4480556,20-Sep-26,10:45:12
43.192463,44.902576,0,1892.1,46285.4481944,20-Sep-26,10:45:24
43.192300,44.903121,0,1894.5,46285.4483333,20-Sep-26,10:45:36
43.192124,44.903664,0,1896.5,46285.4484722,20-Sep-26,10:45:48
43.191937,44.904205,0,1898.3,46285.4486111,20-Sep-26,10:46:00
43.191739,44.904746,0,1899.8,46285.4487500,20-Sep-26,10:46:12
43.191532,44.905287,0,1901.0,46285.4488889,20-Sep-26,10:46:24
43.191317,44.905828,0,1901.9,46285.4490278,20-Sep-26,10:46:36
43.191095,44.906372,0,1902.5,46285.4491667,20-Sep-26,10:46:48
43.190870,44.906918,0,1902.8,46285.4493056,20-Sep-26,10:47:00
43.190644,44.907467,0,1902.9,46285.4494444,20-Sep-26,10:47:12
43.190418,44.908021,0,1902.6,46285.4495833,20-Sep-26,10:47:24
43.190196,44.908579,0,1902.1,46285.4497222,20-Sep-26,10:47:36
43.189979,44.909142,0,1901.2,46285.4498611,20-Sep-26,10:47:48
43.189770,44.909711,0,1900.1,46285.4500000,20-Sep-26,10:48:00
43.189319,44.910036,0,1898.7,46285.4501389,20-Sep-26,10:48:12
43.188880,44.910367,0,1897.0,46285.4502778,20-Sep-26,10:48:24
43.188451,44.910704,0,1895.0,46285.4504167,20-Sep-26,10:48:36
43.188035,44.911047,0,1892.7,46285.4505556,20-Sep-26,10:48:48
43.187631,44.911396,0,1890.2,46285.4506944,20-Sep-26,10:49:00
43.187237,44.911750,0,1887.3,46285.4508333,20-Sep-26,10:49:12
43.186855,44.912109,0,1884.2,46285.4509722,20-Sep-26,10:49:24
43.186481,44.912473,0,1880.9,46285.4511111,20-Sep-26,10:49:36
43.186115,44.912841,0,1877.2,46285.4512500,20-Sep-26,10:49:48
43.185755,44.913213,0,1873.3,46285.4513889,20-Sep-26,10:50:00
43.185397,44.913586,0,1869.1,46285.4515278,20-Sep-26,10:50:12
43.185040,44.913962,0,1864.7,46285.4516667,20-Sep-26,10:50:24
43.184682,44.914338,0,1860.1,46285.4518056,20-Sep-26,10:50:36
43.184319,44.914714,0,1855.1,46285.4519444,20-Sep-26,10:50:48
43.183951,44.915089,0,1850.0,46285.4520833,20-Sep-26,10:51:00
43.183575,44.915462,0,1844.6,46285.4522222,20-Sep-26,10:51:12
43.183189,44.915833,0,1839.0,46285.4523611,20-Sep-26,10:51:24
43.182792,44.916200,0,1833.2,46285.4525000,20-Sep-26,10:51:36
43.182383,44.916563,0,1827.1,46285.4526389,20-Sep-26,10:51:48
43.181963,44.916921,0,1820.9,46285.4527778,20-Sep-26,10:52:00
43.181530,44.917275,0,1814.4,46285.4529167,20-Sep-26,10:52:12
43.181087,44.917622,0,1807.8,46285.4530556,20-Sep-26,10:52:24
43.180633,44.917964,0,1801.0,46285.4531944,20-Sep-26,10:52:36
43.180171,44.918300,0,1793.9,46285.4533333,20-Sep-26,10:52:48
43.179702,44.918630,0,1786.8,46285.4534722,20-Sep-26,10:53:00
43.179228,44.918953,0,1779.4,46285.4536111,20-Sep-26,10:53:12
43.178752,44.919271,0,1771.9,46285.4537500,20-Sep-26,10:53:24
43.178276,44.919583,0,1764.3,46285.4538889,20-Sep-26,10:53:36
43.177802,44.919890,0,1756.5,46285.4540278,20-Sep-26,10:53:48
43.177332,44.920193,0,1748.6,46285.4541667,20-Sep-26,10:54:00
43.176870,44.920492,0,1740.6,46285.4543056,20-Sep-26,10:54:12
43.176415,44.920787,0,1732.4,46285.4544444,20-Sep-26,10:54:24
43.175971,44.921080,0,1724.2,46285.4545833,20-Sep-26,10:54:36
43.175538,44.921371,0,1715.8,46285.4547222,20-Sep-26,10:54:48
43.175117,44.921662,0,1707.4,46285.4548611,20-Sep-26,10:55:00
43.174707,44.921953,0,1698.9,46285.4550000,20-Sep-26,10:55:12
43.174310,44.922244,0,1690.4,46285.4551389,20-Sep-26,10:55:24
43.173923,44.922538,0,1681.7,46285.4552778,20-Sep-26,10:55:36
43.173546,44.922834,0,1673.1,46285.4554167,20-Sep-26,10:55:48
43.173177,44.923133,0,1664.4,46285.4555556,20-Sep-26,10:56:00
43.172814,44.923437,0,1655.7,46285.4556944,20-Sep-26,10:56:12
43.172456,44.923745,0,1646.9,46285.4558333,20-Sep-26,10:56:24
43.172099,44.924058,0,1638.2,46285.4559722,20-Sep-26,10:56:36
43.171741,44.924377,0,1629.4,46285.4561111,20-Sep-26,10:56:48
43.171381,44.924702,0,1620.7,46285.4562500,20-Sep-26,10:57:00
43.171015,44.925033,0,1612.0,46285.4563889,20-Sep-26,10:57:12
43.170642,44.925370,0,1603.3,46285.4565278,20-Sep-26,10:57:24
43.170260,44.925714,0,1594.7,46285.4566667,20-Sep-26,10:57:36
43.169868,44.926063,0,1586.1,46285.4568056,20-Sep-26,10:57:48
43.169465,44.926417,0,1577.5,46285.4569444,20-Sep-26,10:58:00
43.169049,44.926777,0,1569.1,46285.4570833,20-Sep-26,10:58:12
43.168622,44.927141,0,1560.7,46285.4572222,20-Sep-26,10:58:24
43.168183,44.927509,0,1552.4,46285.4573611,20-Sep-26,10:58:36
43.167733,44.927880,0,1544.2,46285.4575000,20-Sep-26,10:58:48
43.167274,44.928254,0,1536.1,46285.4576389,20-Sep-26,10:59:00
43.166808,44.928629,0,1528.2,46285.4577778,20-Sep-26,10:59:12
43.166336,44.929005,0,1520.3,46285.4579167,20-Sep-26,10:59:24
43.165860,44.929381,0,1512.6,46285.4580556,20-Sep-26,10:59:36
43.165384,44.929756,0,1505.1,46285.4581944,20-Sep-26,10:59:48
43.164909,44.930129,0,1497.6,46285.4583333,20-Sep-26,11:00:00
