<?xml version="1.0" encoding="UTF-8"?>
<gpx version="1.1" creator="audit" xmlns="http://www.topografix.com/GPX/1/1">
<wpt lat="43.17" lon="44.81"><name>WP01</name><desc>Тестовая точка WP01</desc></wpt>
<wpt lat="43.185" lon="44.84"><name>WP02</name><desc>Тестовая точка WP02</desc></wpt>
<wpt lat="43.2" lon="44.875"><name>WP03</name><desc>Тестовая точка WP03</desc></wpt>
<wpt lat="43.19" lon="44.91"><name>WP04</name><desc>Тестовая точка WP04</desc></wpt>
<wpt lat="43.165" lon="44.93"><name>WP05</name><desc>Тестовая точка WP05</desc></wpt>
<wpt lat="43.16" lon="44.8"><name>Старт</name><desc>Тестовая точка Старт</desc></wpt>
<rte><name>Тест маршрут</name>
<rtept lat="43.16" lon="44.8"><name>Старт</name></rtept>
<rtept lat="43.17" lon="44.81"><name>WP01</name></rtept>
<rtept lat="43.185" lon="44.84"><name>WP02</name></rtept>
<rtept lat="43.2" lon="44.875"><name>WP03</name></rtept>
<rtept lat="43.19" lon="44.91"><name>WP04</name></rtept>
<rtept lat="43.165" lon="44.93"><name>WP05</name></rtept>
</rte>
<trk><name>Тест трек Ингушетия</name><trkseg>
<trkpt lat="43.160000" lon="44.800300"><ele>500.0</ele><time>2026-09-20T10:00:00Z</time></trkpt>
<trkpt lat="43.160226" lon="44.800464"><ele>502.7</ele><time>2026-09-20T10:00:12Z</time></trkpt>
<trkpt lat="43.160450" lon="44.800621"><ele>505.3</ele><time>2026-09-20T10:00:24Z</time></trkpt>
<trkpt lat="43.160669" lon="44.800773"><ele>508.0</ele><time>2026-09-20T10:00:36Z</time></trkpt>
<trkpt lat="43.160882" lon="44.800919"><ele>510.6</ele><time>2026-09-20T10:00:48Z</time></trkpt>
<trkpt lat="43.161086" lon="44.801060"><ele>513.3</ele><time>2026-09-20T10:01:00Z</time></trkpt>
<trkpt lat="43.161280" lon="44.801196"><ele>515.9</ele><time>2026-09-20T10:01:12Z</time></trkpt>
<trkpt lat="43.161462" lon="44.801329"><ele>518.5</ele><time>2026-09-20T10:01:24Z</time></trkpt>
<trkpt lat="43.161633" lon="44.801458"><ele>521.1</ele><time>2026-09-20T10:01:36Z</time></trkpt>
<trkpt lat="43.161792" lon="44.801584"><ele>523.6</ele><time>2026-09-20T10:01:48Z</time></trkpt>
<trkpt lat="43.161939" lon="44.801709"><ele>526.2</ele><time>2026-09-20T10:02:00Z</time></trkpt>
<trkpt lat="43.162076" lon="44.801833"><ele>528.7</ele><time>2026-09-20T10:02:12Z</time></trkpt>
<trkpt lat="43.162203" lon="44.801957"><ele>531.2</ele><time>2026-09-20T10:02:24Z</time></trkpt>
<trkpt lat="43.162321" lon="44.802082"><ele>533.6</ele><time>2026-09-20T10:02:36Z</time></trkpt>
<trkpt lat="43.162434" lon="44.802208"><ele>536.0</ele><time>2026-09-20T10:02:48Z</time></trkpt>
<trkpt lat="43.162542" lon="44.802338"><ele>538.4</ele><time>2026-09-20T10:03:00Z</time></trkpt>
<trkpt lat="43.162649" lon="44.802470"><ele>540.7</ele><time>2026-09-20T10:03:12Z</time></trkpt>
<trkpt lat="43.162757" lon="44.802606"><ele>542.9</ele><time>2026-09-20T10:03:24Z</time></trkpt>
<trkpt lat="43.162867" lon="44.802747"><ele>545.2</ele><time>2026-09-20T10:03:36Z</time></trkpt>
<trkpt lat="43.162983" lon="44.802894"><ele>547.3</ele><time>2026-09-20T10:03:48Z</time></trkpt>
<trkpt lat="43.163106" lon="44.803045"><ele>549.5</ele><time>2026-09-20T10:04:00Z</time></trkpt>
<trkpt lat="43.163239" lon="44.803203"><ele>551.5</ele><time>2026-09-20T10:04:12Z</time></trkpt>
<trkpt lat="43.163381" lon="44.803367"><ele>553.5</ele><time>2026-09-20T10:04:24Z</time></trkpt>
<trkpt lat="43.163535" lon="44.803536"><ele>555.5</ele><time>2026-09-20T10:04:36Z</time></trkpt>
<trkpt lat="43.163701" lon="44.803712"><ele>557.4</ele><time>2026-09-20T10:04:48Z</time></trkpt>
<trkpt lat="43.163879" lon="44.803894"><ele>559.2</ele><time>2026-09-20T10:05:00Z</time></trkpt>
<trkpt lat="43.164068" lon="44.804081"><ele>561.0</ele><time>2026-09-20T10:05:12Z</time></trkpt>
<trkpt lat="43.164268" lon="44.804274"><ele>562.7</ele><time>2026-09-20T10:05:24Z</time></trkpt>
<trkpt lat="43.164477" lon="44.804471"><ele>564.3</ele><time>2026-09-20T10:05:36Z</time></trkpt>
<trkpt lat="43.164694" lon="44.804672"><ele>565.8</ele><time>2026-09-20T10:05:48Z</time></trkpt>
<trkpt lat="43.164916" lon="44.804876"><ele>567.3</ele><time>2026-09-20T10:06:00Z</time></trkpt>
<trkpt lat="43.165142" lon="44.805083"><ele>568.7</ele><time>2026-09-20T10:06:12Z</time></trkpt>
<trkpt lat="43.165368" lon="44.805291"><ele>570.0</ele><time>2026-09-20T10:06:24Z</time></trkpt>
<trkpt lat="43.165593" lon="44.805501"><ele>571.3</ele><time>2026-09-20T10:06:36Z</time></trkpt>
<trkpt lat="43.165815" lon="44.805710"><ele>572.5</ele><time>2026-09-20T10:06:48Z</time></trkpt>
<trkpt lat="43.166030" lon="44.805918"><ele>573.6</ele><time>2026-09-20T10:07:00Z</time></trkpt>
<trkpt lat="43.166238" lon="44.806125"><ele>574.6</ele><time>2026-09-20T10:07:12Z</time></trkpt>
<trkpt lat="43.166436" lon="44.806329"><ele>575.5</ele><time>2026-09-20T10:07:24Z</time></trkpt>
<trkpt lat="43.166624" lon="44.806530"><ele>576.3</ele><time>2026-09-20T10:07:36Z</time></trkpt>
<trkpt lat="43.166800" lon="44.806727"><ele>577.1</ele><time>2026-09-20T10:07:48Z</time></trkpt>
<trkpt lat="43.166963" lon="44.806919"><ele>577.8</ele><time>2026-09-20T10:08:00Z</time></trkpt>
<trkpt lat="43.167116" lon="44.807107"><ele>578.3</ele><time>2026-09-20T10:08:12Z</time></trkpt>
<trkpt lat="43.167256" lon="44.807288"><ele>578.8</ele><time>2026-09-20T10:08:24Z</time></trkpt>
<trkpt lat="43.167387" lon="44.807464"><ele>579.2</ele><time>2026-09-20T10:08:36Z</time></trkpt>
<trkpt lat="43.167509" lon="44.807633"><ele>579.6</ele><time>2026-09-20T10:08:48Z</time></trkpt>
<trkpt lat="43.167624" lon="44.807797"><ele>579.8</ele><time>2026-09-20T10:09:00Z</time></trkpt>
<trkpt lat="43.167734" lon="44.807954"><ele>579.9</ele><time>2026-09-20T10:09:12Z</time></trkpt>
<trkpt lat="43.167841" lon="44.808106"><ele>580.0</ele><time>2026-09-20T10:09:24Z</time></trkpt>
<trkpt lat="43.167948" lon="44.808252"><ele>580.0</ele><time>2026-09-20T10:09:36Z</time></trkpt>
<trkpt lat="43.168057" lon="44.808393"><ele>579.8</ele><time>2026-09-20T10:09:48Z</time></trkpt>
<trkpt lat="43.168170" lon="44.808529"><ele>579.6</ele><time>2026-09-20T10:10:00Z</time></trkpt>
<trkpt lat="43.168290" lon="44.808661"><ele>579.3</ele><time>2026-09-20T10:10:12Z</time></trkpt>
<trkpt lat="43.168418" lon="44.808790"><ele>578.9</ele><time>2026-09-20T10:10:24Z</time></trkpt>
<trkpt lat="43.168557" lon="44.808917"><ele>578.5</ele><time>2026-09-20T10:10:36Z</time></trkpt>
<trkpt lat="43.168706" lon="44.809042"><ele>577.9</ele><time>2026-09-20T10:10:48Z</time></trkpt>
<trkpt lat="43.168867" lon="44.809166"><ele>577.3</ele><time>2026-09-20T10:11:00Z</time></trkpt>
<trkpt lat="43.169040" lon="44.809290"><ele>576.5</ele><time>2026-09-20T10:11:12Z</time></trkpt>
<trkpt lat="43.169224" lon="44.809415"><ele>575.7</ele><time>2026-09-20T10:11:24Z</time></trkpt>
<trkpt lat="43.169420" lon="44.809541"><ele>574.8</ele><time>2026-09-20T10:11:36Z</time></trkpt>
<trkpt lat="43.169625" lon="44.809670"><ele>573.8</ele><time>2026-09-20T10:11:48Z</time></trkpt>
<trkpt lat="43.169839" lon="44.809803"><ele>572.7</ele><time>2026-09-20T10:12:00Z</time></trkpt>
<trkpt lat="43.170143" lon="44.810273"><ele>571.6</ele><time>2026-09-20T10:12:12Z</time></trkpt>
<trkpt lat="43.170450" lon="44.810747"><ele>570.4</ele><time>2026-09-20T10:12:24Z</time></trkpt>
<trkpt lat="43.170760" lon="44.811227"><ele>569.1</ele><time>2026-09-20T10:12:36Z</time></trkpt>
<trkpt lat="43.171069" lon="44.811712"><ele>567.7</ele><time>2026-09-20T10:12:48Z</time></trkpt>
<trkpt lat="43.171376" lon="44.812203"><ele>566.2</ele><time>2026-09-20T10:13:00Z</time></trkpt>
<trkpt lat="43.171678" lon="44.812700"><ele>564.7</ele><time>2026-09-20T10:13:12Z</time></trkpt>
<trkpt lat="43.171972" lon="44.813203"><ele>563.1</ele><time>2026-09-20T10:13:24Z</time></trkpt>
<trkpt lat="43.172258" lon="44.813712"><ele>561.4</ele><time>2026-09-20T10:13:36Z</time></trkpt>
<trkpt lat="43.172533" lon="44.814228"><ele>559.7</ele><time>2026-09-20T10:13:48Z</time></trkpt>
<trkpt lat="43.172797" lon="44.814748"><ele>557.8</ele><time>2026-09-20T10:14:00Z</time></trkpt>
<trkpt lat="43.173049" lon="44.815274"><ele>556.0</ele><time>2026-09-20T10:14:12Z</time></trkpt>
<trkpt lat="43.173290" lon="44.815804"><ele>554.0</ele><time>2026-09-20T10:14:24Z</time></trkpt>
<trkpt lat="43.173518" lon="44.816339"><ele>552.0</ele><time>2026-09-20T10:14:36Z</time></trkpt>
<trkpt lat="43.173736" lon="44.816877"><ele>550.0</ele><time>2026-09-20T10:14:48Z</time></trkpt>
<trkpt lat="43.173945" lon="44.817417"><ele>547.9</ele><time>2026-09-20T10:15:00Z</time></trkpt>
<trkpt lat="43.174146" lon="44.817959"><ele>545.7</ele><time>2026-09-20T10:15:12Z</time></trkpt>
<trkpt lat="43.174341" lon="44.818501"><ele>543.5</ele><time>2026-09-20T10:15:24Z</time></trkpt>
<trkpt lat="43.174532" lon="44.819044"><ele>541.2</ele><time>2026-09-20T10:15:36Z</time></trkpt>
<trkpt lat="43.174722" lon="44.819586"><ele>538.9</ele><time>2026-09-20T10:15:48Z</time></trkpt>
<trkpt lat="43.174914" lon="44.820126"><ele>536.6</ele><time>2026-09-20T10:16:00Z</time></trkpt>
<trkpt lat="43.175108" lon="44.820663"><ele>534.2</ele><time>2026-09-20T10:16:12Z</time></trkpt>
<trkpt lat="43.175309" lon="44.821198"><ele>531.8</ele><time>2026-09-20T10:16:24Z</time></trkpt>
<trkpt lat="43.175516" lon="44.821728"><ele>529.3</ele><time>2026-09-20T10:16:36Z</time></trkpt>
<trkpt lat="43.175734" lon="44.822253"><ele>526.8</ele><time>2026-09-20T10:16:48Z</time></trkpt>
<trkpt lat="43.175962" lon="44.822773"><ele>524.3</ele><time>2026-09-20T10:17:00Z</time></trkpt>
<trkpt lat="43.176201" lon="44.823288"><ele>521.7</ele><time>2026-09-20T10:17:12Z</time></trkpt>
<trkpt lat="43.176452" lon="44.823797"><ele>519.1</ele><time>2026-09-20T10:17:24Z</time></trkpt>
<trkpt lat="43.176715" lon="44.824300"><ele>516.5</ele><time>2026-09-20T10:17:36Z</time></trkpt>
<trkpt lat="43.176990" lon="44.824797"><ele>513.9</ele><time>2026-09-20T10:17:48Z</time></trkpt>
<trkpt lat="43.177275" lon="44.825287"><ele>511.3</ele><time>2026-09-20T10:18:00Z</time></trkpt>
<trkpt lat="43.177569" lon="44.825772"><ele>508.6</ele><time>2026-09-20T10:18:12Z</time></trkpt>
<trkpt lat="43.177870" lon="44.826252"><ele>506.0</ele><time>2026-09-20T10:18:24Z</time></trkpt>
<trkpt lat="43.178176" lon="44.826726"><ele>503.3</ele><time>2026-09-20T10:18:36Z</time></trkpt>
<trkpt lat="43.178485" lon="44.827195"><ele>500.7</ele><time>2026-09-20T10:18:48Z</time></trkpt>
<trkpt lat="43.178795" lon="44.827661"><ele>498.0</ele><time>2026-09-20T10:19:00Z</time></trkpt>
<trkpt lat="43.179103" lon="44.828123"><ele>495.3</ele><time>2026-09-20T10:19:12Z</time></trkpt>
<trkpt lat="43.179407" lon="44.828583"><ele>492.7</ele><time>2026-09-20T10:19:24Z</time></trkpt>
<trkpt lat="43.179705" lon="44.829041"><ele>490.0</ele><time>2026-09-20T10:19:36Z</time></trkpt>
<trkpt lat="43.179994" lon="44.829498"><ele>487.4</ele><time>2026-09-20T10:19:48Z</time></trkpt>
<trkpt lat="43.180274" lon="44.829956"><ele>484.8</ele><time>2026-09-20T10:20:00Z</time></trkpt>
<trkpt lat="43.180543" lon="44.830414"><ele>482.1</ele><time>2026-09-20T10:20:12Z</time></trkpt>
<trkpt lat="43.180800" lon="44.830874"><ele>479.6</ele><time>2026-09-20T10:20:24Z</time></trkpt>
<trkpt lat="43.181045" lon="44.831336"><ele>477.0</ele><time>2026-09-20T10:20:36Z</time></trkpt>
<trkpt lat="43.181279" lon="44.831802"><ele>474.4</ele><time>2026-09-20T10:20:48Z</time></trkpt>
<trkpt lat="43.181501" lon="44.832272"><ele>471.9</ele><time>2026-09-20T10:21:00Z</time></trkpt>
<trkpt lat="43.181713" lon="44.832747"><ele>469.5</ele><time>2026-09-20T10:21:12Z</time></trkpt>
<trkpt lat="43.181917" lon="44.833226"><ele>467.0</ele><time>2026-09-20T10:21:24Z</time></trkpt>
<trkpt lat="43.182114" lon="44.833712"><ele>464.6</ele><time>2026-09-20T10:21:36Z</time></trkpt>
<trkpt lat="43.182307" lon="44.834203"><ele>462.2</ele><time>2026-09-20T10:21:48Z</time></trkpt>
<trkpt lat="43.182497" lon="44.834700"><ele>459.9</ele><time>2026-09-20T10:22:00Z</time></trkpt>
<trkpt lat="43.182688" lon="44.835203"><ele>457.6</ele><time>2026-09-20T10:22:12Z</time></trkpt>
<trkpt lat="43.182881" lon="44.835713"><ele>455.4</ele><time>2026-09-20T10:22:24Z</time></trkpt>
<trkpt lat="43.183078" lon="44.836228"><ele>453.2</ele><time>2026-09-20T10:22:36Z</time></trkpt>
<trkpt lat="43.183283" lon="44.836749"><ele>451.1</ele><time>2026-09-20T10:22:48Z</time></trkpt>
<trkpt lat="43.183496" lon="44.837275"><ele>449.0</ele><time>2026-09-20T10:23:00Z</time></trkpt>
<trkpt lat="43.183719" lon="44.837805"><ele>446.9</ele><time>2026-09-20T10:23:12Z</time></trkpt>
<trkpt lat="43.183954" lon="44.838340"><ele>445.0</ele><time>2026-09-20T10:23:24Z</time></trkpt>
<trkpt lat="43.184200" lon="44.838877"><ele>443.1</ele><time>2026-09-20T10:23:36Z</time></trkpt>
<trkpt lat="43.184458" lon="44.839417"><ele>441.2</ele><time>2026-09-20T10:23:48Z</time></trkpt>
<trkpt lat="43.184728" lon="44.839959"><ele>439.5</ele><time>2026-09-20T10:24:00Z</time></trkpt>
<trkpt lat="43.185009" lon="44.840585"><ele>437.7</ele><time>2026-09-20T10:24:12Z</time></trkpt>
<trkpt lat="43.185299" lon="44.841211"><ele>436.1</ele><time>2026-09-20T10:24:24Z</time></trkpt>
<trkpt lat="43.185598" lon="44.841837"><ele>434.5</ele><time>2026-09-20T10:24:36Z</time></trkpt>
<trkpt lat="43.185902" lon="44.842460"><ele>433.0</ele><time>2026-09-20T10:24:48Z</time></trkpt>
<trkpt lat="43.186210" lon="44.843081"><ele>431.6</ele><time>2026-09-20T10:25:00Z</time></trkpt>
<trkpt lat="43.186520" lon="44.843698"><ele>430.3</ele><time>2026-09-20T10:25:12Z</time></trkpt>
<trkpt lat="43.186829" lon="44.844311"><ele>429.0</ele><time>2026-09-20T10:25:24Z</time></trkpt>
<trkpt lat="43.187135" lon="44.844920"><ele>427.8</ele><time>2026-09-20T10:25:36Z</time></trkpt>
<trkpt lat="43.187436" lon="44.845524"><ele>426.7</ele><time>2026-09-20T10:25:48Z</time></trkpt>
<trkpt lat="43.187729" lon="44.846122"><ele>425.7</ele><time>2026-09-20T10:26:00Z</time></trkpt>
<trkpt lat="43.188013" lon="44.846714"><ele>424.7</ele><time>2026-09-20T10:26:12Z</time></trkpt>
<trkpt lat="43.188286" lon="44.847300"><ele>423.9</ele><time>2026-09-20T10:26:24Z</time></trkpt>
<trkpt lat="43.188548" lon="44.847880"><ele>423.1</ele><time>2026-09-20T10:26:36Z</time></trkpt>
<trkpt lat="43.188799" lon="44.848454"><ele>422.4</ele><time>2026-09-20T10:26:48Z</time></trkpt>
<trkpt lat="43.189037" lon="44.849022"><ele>421.8</ele><time>2026-09-20T10:27:00Z</time></trkpt>
<trkpt lat="43.189264" lon="44.849584"><ele>421.3</ele><time>2026-09-20T10:27:12Z</time></trkpt>
<trkpt lat="43.189480" lon="44.850142"><ele>420.8</ele><time>2026-09-20T10:27:24Z</time></trkpt>
<trkpt lat="43.189687" lon="44.850695"><ele>420.5</ele><time>2026-09-20T10:27:36Z</time></trkpt>
<trkpt lat="43.189887" lon="44.851244"><ele>420.2</ele><time>2026-09-20T10:27:48Z</time></trkpt>
<trkpt lat="43.190081" lon="44.851789"><ele>420.1</ele><time>2026-09-20T10:28:00Z</time></trkpt>
<trkpt lat="43.190272" lon="44.852332"><ele>420.0</ele><time>2026-09-20T10:28:12Z</time></trkpt>
<trkpt lat="43.190462" lon="44.852874"><ele>420.0</ele><time>2026-09-20T10:28:24Z</time></trkpt>
<trkpt lat="43.190654" lon="44.853414"><ele>420.1</ele><time>2026-09-20T10:28:36Z</time></trkpt>
<trkpt lat="43.190849" lon="44.853955"><ele>420.3</ele><time>2026-09-20T10:28:48Z</time></trkpt>
<trkpt lat="43.191051" lon="44.854496"><ele>420.6</ele><time>2026-09-20T10:29:00Z</time></trkpt>
<trkpt lat="43.191260" lon="44.855040"><ele>421.0</ele><time>2026-09-20T10:29:12Z</time></trkpt>
<trkpt lat="43.191479" lon="44.855586"><ele>421.4</ele><time>2026-09-20T10:29:24Z</time></trkpt>
<trkpt lat="43.191709" lon="44.856135"><ele>421.9</ele><time>2026-09-20T10:29:36Z</time></trkpt>
<trkpt lat="43.191950" lon="44.856688"><ele>422.6</ele><time>2026-09-20T10:29:48Z</time></trkpt>
<trkpt lat="43.192204" lon="44.857246"><ele>423.3</ele><time>2026-09-20T10:30:00Z</time></trkpt>
<trkpt lat="43.192469" lon="44.857809"><ele>424.1</ele><time>2026-09-20T10:30:12Z</time></trkpt>
<trkpt lat="43.192745" lon="44.858378"><ele>425.0</ele><time>2026-09-20T10:30:24Z</time></trkpt>
<trkpt lat="43.193031" lon="44.858953"><ele>425.9</ele><time>2026-09-20T10:30:36Z</time></trkpt>
<trkpt lat="43.193327" lon="44.859533"><ele>427.0</ele><time>2026-09-20T10:30:48Z</time></trkpt>
<trkpt lat="43.193629" lon="44.860120"><ele>428.1</ele><time>2026-09-20T10:31:00Z</time></trkpt>
<trkpt lat="43.193936" lon="44.860713"><ele>429.3</ele><time>2026-09-20T10:31:12Z</time></trkpt>
<trkpt lat="43.194245" lon="44.861312"><ele>430.6</ele><time>2026-09-20T10:31:24Z</time></trkpt>
<trkpt lat="43.194555" lon="44.861916"><ele>432.0</ele><time>2026-09-20T10:31:36Z</time></trkpt>
<trkpt lat="43.194862" lon="44.862525"><ele>433.4</ele><time>2026-09-20T10:31:48Z</time></trkpt>
<trkpt lat="43.195165" lon="44.863139"><ele>434.9</ele><time>2026-09-20T10:32:00Z</time></trkpt>
<trkpt lat="43.195462" lon="44.863757"><ele>436.5</ele><time>2026-09-20T10:32:12Z</time></trkpt>
<trkpt lat="43.195750" lon="44.864378"><ele>438.2</ele><time>2026-09-20T10:32:24Z</time></trkpt>
<trkpt lat="43.196028" lon="44.865002"><ele>439.9</ele><time>2026-09-20T10:32:36Z</time></trkpt>
<trkpt lat="43.196295" lon="44.865627"><ele>441.7</ele><time>2026-09-20T10:32:48Z</time></trkpt>
<trkpt lat="43.196550" lon="44.866253"><ele>443.6</ele><time>2026-09-20T10:33:00Z</time></trkpt>
<trkpt lat="43.196793" lon="44.866879"><ele>445.5</ele><time>2026-09-20T10:33:12Z</time></trkpt>
<trkpt lat="43.197025" lon="44.867504"><ele>447.5</ele><time>2026-09-20T10:33:24Z</time></trkpt>
<trkpt lat="43.197245" lon="44.868127"><ele>449.5</ele><time>2026-09-20T10:33:36Z</time></trkpt>
<trkpt lat="43.197456" lon="44.868748"><ele>451.6</ele><time>2026-09-20T10:33:48Z</time></trkpt>
<trkpt lat="43.197659" lon="44.869365"><ele>453.7</ele><time>2026-09-20T10:34:00Z</time></trkpt>
<trkpt lat="43.197855" lon="44.869979"><ele>455.9</ele><time>2026-09-20T10:34:12Z</time></trkpt>
<trkpt lat="43.198047" lon="44.870587"><ele>458.2</ele><time>2026-09-20T10:34:24Z</time></trkpt>
<trkpt lat="43.198237" lon="44.871191"><ele>460.5</ele><time>2026-09-20T10:34:36Z</time></trkpt>
<trkpt lat="43.198428" lon="44.871789"><ele>462.8</ele><time>2026-09-20T10:34:48Z</time></trkpt>
<trkpt lat="43.198622" lon="44.872381"><ele>465.2</ele><time>2026-09-20T10:35:00Z</time></trkpt>
<trkpt lat="43.198820" lon="44.872967"><ele>467.6</ele><time>2026-09-20T10:35:12Z</time></trkpt>
<trkpt lat="43.199026" lon="44.873546"><ele>470.1</ele><time>2026-09-20T10:35:24Z</time></trkpt>
<trkpt lat="43.199241" lon="44.874120"><ele>472.6</ele><time>2026-09-20T10:35:36Z</time></trkpt>
<trkpt lat="43.199466" lon="44.874688"><ele>475.1</ele><time>2026-09-20T10:35:48Z</time></trkpt>
<trkpt lat="43.199702" lon="44.875251"><ele>477.6</ele><time>2026-09-20T10:36:00Z</time></trkpt>
<trkpt lat="43.199534" lon="44.875808"><ele>480.2</ele><time>2026-09-20T10:36:12Z</time></trkpt>
<trkpt lat="43.199378" lon="44.876361"><ele>482.8</ele><time>2026-09-20T10:36:24Z</time></trkpt>
<trkpt lat="43.199233" lon="44.876910"><ele>485.4</ele><time>2026-09-20T10:36:36Z</time></trkpt>
<trkpt lat="43.199099" lon="44.877455"><ele>488.1</ele><time>2026-09-20T10:36:48Z</time></trkpt>
<trkpt lat="43.198974" lon="44.877998"><ele>490.7</ele><time>2026-09-20T10:37:00Z</time></trkpt>
<trkpt lat="43.198856" lon="44.878540"><ele>493.4</ele><time>2026-09-20T10:37:12Z</time></trkpt>
<trkpt lat="43.198745" lon="44.879080"><ele>496.0</ele><time>2026-09-20T10:37:24Z</time></trkpt>
<trkpt lat="43.198637" lon="44.879621"><ele>498.7</ele><time>2026-09-20T10:37:36Z</time></trkpt>
<trkpt lat="43.198530" lon="44.880162"><ele>501.3</ele><time>2026-09-20T10:37:48Z</time></trkpt>
<trkpt lat="43.198422" lon="44.880706"><ele>504.0</ele><time>2026-09-20T10:38:00Z</time></trkpt>
<trkpt lat="43.198311" lon="44.881252"><ele>506.7</ele><time>2026-09-20T10:38:12Z</time></trkpt>
<trkpt lat="43.198193" lon="44.881801"><ele>509.3</ele><time>2026-09-20T10:38:24Z</time></trkpt>
<trkpt lat="43.198068" lon="44.882354"><ele>512.0</ele><time>2026-09-20T10:38:36Z</time></trkpt>
<trkpt lat="43.197934" lon="44.882912"><ele>514.6</ele><time>2026-09-20T10:38:48Z</time></trkpt>
<trkpt lat="43.197789" lon="44.883476"><ele>517.2</ele><time>2026-09-20T10:39:00Z</time></trkpt>
<trkpt lat="43.197633" lon="44.884045"><ele>519.8</ele><time>2026-09-20T10:39:12Z</time></trkpt>
<trkpt lat="43.197464" lon="44.884619"><ele>522.4</ele><time>2026-09-20T10:39:24Z</time></trkpt>
<trkpt lat="43.197284" lon="44.885200"><ele>524.9</ele><time>2026-09-20T10:39:36Z</time></trkpt>
<trkpt lat="43.197092" lon="44.885787"><ele>527.4</ele><time>2026-09-20T10:39:48Z</time></trkpt>
<trkpt lat="43.196890" lon="44.886380"><ele>529.9</ele><time>2026-09-20T10:40:00Z</time></trkpt>
<trkpt lat="43.196679" lon="44.886979"><ele>532.4</ele><time>2026-09-20T10:40:12Z</time></trkpt>
<trkpt lat="43.196461" lon="44.887583"><ele>534.8</ele><time>2026-09-20T10:40:24Z</time></trkpt>
<trkpt lat="43.196238" lon="44.888192"><ele>537.2</ele><time>2026-09-20T10:40:36Z</time></trkpt>
<trkpt lat="43.196012" lon="44.888806"><ele>539.5</ele><time>2026-09-20T10:40:48Z</time></trkpt>
<trkpt lat="43.195786" lon="44.889424"><ele>541.8</ele><time>2026-09-20T10:41:00Z</time></trkpt>
<trkpt lat="43.195561" lon="44.890045"><ele>544.1</ele><time>2026-09-20T10:41:12Z</time></trkpt>
<trkpt lat="43.195341" lon="44.890669"><ele>546.3</ele><time>2026-09-20T10:41:24Z</time></trkpt>
<trkpt lat="43.195127" lon="44.891294"><ele>548.4</ele><time>2026-09-20T10:41:36Z</time></trkpt>
<trkpt lat="43.194921" lon="44.891920"><ele>550.5</ele><time>2026-09-20T10:41:48Z</time></trkpt>
<trkpt lat="43.194725" lon="44.892546"><ele>552.6</ele><time>2026-09-20T10:42:00Z</time></trkpt>
<trkpt lat="43.194540" lon="44.893171"><ele>554.5</ele><time>2026-09-20T10:42:12Z</time></trkpt>
<trkpt lat="43.194367" lon="44.893795"><ele>556.5</ele><time>2026-09-20T10:42:24Z</time></trkpt>
<trkpt lat="43.194205" lon="44.894415"><ele>558.3</ele><time>2026-09-20T10:42:36Z</time></trkpt>
<trkpt lat="43.194056" lon="44.895033"><ele>560.1</ele><time>2026-09-20T10:42:48Z</time></trkpt>
<trkpt lat="43.193917" lon="44.895646"><ele>561.8</ele><time>2026-09-20T10:43:00Z</time></trkpt>
<trkpt lat="43.193789" lon="44.896254"><ele>563.5</ele><time>2026-09-20T10:43:12Z</time></trkpt>
<trkpt lat="43.193668" lon="44.896858"><ele>565.1</ele><time>2026-09-20T10:43:24Z</time></trkpt>
<trkpt lat="43.193555" lon="44.897456"><ele>566.6</ele><time>2026-09-20T10:43:36Z</time></trkpt>
<trkpt lat="43.193446" lon="44.898047"><ele>568.0</ele><time>2026-09-20T10:43:48Z</time></trkpt>
<trkpt lat="43.193339" lon="44.898633"><ele>569.4</ele><time>2026-09-20T10:44:00Z</time></trkpt>
<trkpt lat="43.193231" lon="44.899213"><ele>570.7</ele><time>2026-09-20T10:44:12Z</time></trkpt>
<trkpt lat="43.193122" lon="44.899787"><ele>571.9</ele><time>2026-09-20T10:44:24Z</time></trkpt>
<trkpt lat="43.193007" lon="44.900355"><ele>573.0</ele><time>2026-09-20T10:44:36Z</time></trkpt>
<trkpt lat="43.192886" lon="44.900917"><ele>574.1</ele><time>2026-09-20T10:44:48Z</time></trkpt>
<trkpt lat="43.192755" lon="44.901474"><ele>575.0</ele><time>2026-09-20T10:45:00Z</time></trkpt>
<trkpt lat="43.192615" lon="44.902027"><ele>575.9</ele><time>2026-09-20T10:45:12Z</time></trkpt>
<trkpt lat="43.192463" lon="44.902576"><ele>576.7</ele><time>2026-09-20T10:45:24Z</time></trkpt>
<trkpt lat="43.192300" lon="44.903121"><ele>577.4</ele><time>2026-09-20T10:45:36Z</time></trkpt>
<trkpt lat="43.192124" lon="44.903664"><ele>578.1</ele><time>2026-09-20T10:45:48Z</time></trkpt>
<trkpt lat="43.191937" lon="44.904205"><ele>578.6</ele><time>2026-09-20T10:46:00Z</time></trkpt>
<trkpt lat="43.191739" lon="44.904746"><ele>579.1</ele><time>2026-09-20T10:46:12Z</time></trkpt>
<trkpt lat="43.191532" lon="44.905287"><ele>579.4</ele><time>2026-09-20T10:46:24Z</time></trkpt>
<trkpt lat="43.191317" lon="44.905828"><ele>579.7</ele><time>2026-09-20T10:46:36Z</time></trkpt>
<trkpt lat="43.191095" lon="44.906372"><ele>579.9</ele><time>2026-09-20T10:46:48Z</time></trkpt>
<trkpt lat="43.190870" lon="44.906918"><ele>580.0</ele><time>2026-09-20T10:47:00Z</time></trkpt>
<trkpt lat="43.190644" lon="44.907467"><ele>580.0</ele><time>2026-09-20T10:47:12Z</time></trkpt>
<trkpt lat="43.190418" lon="44.908021"><ele>579.9</ele><time>2026-09-20T10:47:24Z</time></trkpt>
<trkpt lat="43.190196" lon="44.908579"><ele>579.7</ele><time>2026-09-20T10:47:36Z</time></trkpt>
<trkpt lat="43.189979" lon="44.909142"><ele>579.5</ele><time>2026-09-20T10:47:48Z</time></trkpt>
<trkpt lat="43.189770" lon="44.909711"><ele>579.1</ele><time>2026-09-20T10:48:00Z</time></trkpt>
<trkpt lat="43.189319" lon="44.910036"><ele>578.7</ele><time>2026-09-20T10:48:12Z</time></trkpt>
<trkpt lat="43.188880" lon="44.910367"><ele>578.2</ele><time>2026-09-20T10:48:24Z</time></trkpt>
<trkpt lat="43.188451" lon="44.910704"><ele>577.6</ele><time>2026-09-20T10:48:36Z</time></trkpt>
<trkpt lat="43.188035" lon="44.911047"><ele>576.9</ele><time>2026-09-20T10:48:48Z</time></trkpt>
<trkpt lat="43.187631" lon="44.911396"><ele>576.1</ele><time>2026-09-20T10:49:00Z</time></trkpt>
<trkpt lat="43.187237" lon="44.911750"><ele>575.3</ele><time>2026-09-20T10:49:12Z</time></trkpt>
<trkpt lat="43.186855" lon="44.912109"><ele>574.3</ele><time>2026-09-20T10:49:24Z</time></trkpt>
<trkpt lat="43.186481" lon="44.912473"><ele>573.3</ele><time>2026-09-20T10:49:36Z</time></trkpt>
<trkpt lat="43.186115" lon="44.912841"><ele>572.2</ele><time>2026-09-20T10:49:48Z</time></trkpt>
<trkpt lat="43.185755" lon="44.913213"><ele>571.0</ele><time>2026-09-20T10:50:00Z</time></trkpt>
<trkpt lat="43.185397" lon="44.913586"><ele>569.7</ele><time>2026-09-20T10:50:12Z</time></trkpt>
<trkpt lat="43.185040" lon="44.913962"><ele>568.4</ele><time>2026-09-20T10:50:24Z</time></trkpt>
<trkpt lat="43.184682" lon="44.914338"><ele>566.9</ele><time>2026-09-20T10:50:36Z</time></trkpt>
<trkpt lat="43.184319" lon="44.914714"><ele>565.4</ele><time>2026-09-20T10:50:48Z</time></trkpt>
<trkpt lat="43.183951" lon="44.915089"><ele>563.9</ele><time>2026-09-20T10:51:00Z</time></trkpt>
<trkpt lat="43.183575" lon="44.915462"><ele>562.2</ele><time>2026-09-20T10:51:12Z</time></trkpt>
<trkpt lat="43.183189" lon="44.915833"><ele>560.5</ele><time>2026-09-20T10:51:24Z</time></trkpt>
<trkpt lat="43.182792" lon="44.916200"><ele>558.8</ele><time>2026-09-20T10:51:36Z</time></trkpt>
<trkpt lat="43.182383" lon="44.916563"><ele>556.9</ele><time>2026-09-20T10:51:48Z</time></trkpt>
<trkpt lat="43.181963" lon="44.916921"><ele>555.0</ele><time>2026-09-20T10:52:00Z</time></trkpt>
<trkpt lat="43.181530" lon="44.917275"><ele>553.0</ele><time>2026-09-20T10:52:12Z</time></trkpt>
<trkpt lat="43.181087" lon="44.917622"><ele>551.0</ele><time>2026-09-20T10:52:24Z</time></trkpt>
<trkpt lat="43.180633" lon="44.917964"><ele>548.9</ele><time>2026-09-20T10:52:36Z</time></trkpt>
<trkpt lat="43.180171" lon="44.918300"><ele>546.8</ele><time>2026-09-20T10:52:48Z</time></trkpt>
<trkpt lat="43.179702" lon="44.918630"><ele>544.6</ele><time>2026-09-20T10:53:00Z</time></trkpt>
<trkpt lat="43.179228" lon="44.918953"><ele>542.4</ele><time>2026-09-20T10:53:12Z</time></trkpt>
<trkpt lat="43.178752" lon="44.919271"><ele>540.1</ele><time>2026-09-20T10:53:24Z</time></trkpt>
<trkpt lat="43.178276" lon="44.919583"><ele>537.8</ele><time>2026-09-20T10:53:36Z</time></trkpt>
<trkpt lat="43.177802" lon="44.919890"><ele>535.4</ele><time>2026-09-20T10:53:48Z</time></trkpt>
<trkpt lat="43.177332" lon="44.920193"><ele>533.0</ele><time>2026-09-20T10:54:00Z</time></trkpt>
<trkpt lat="43.176870" lon="44.920492"><ele>530.5</ele><time>2026-09-20T10:54:12Z</time></trkpt>
<trkpt lat="43.176415" lon="44.920787"><ele>528.0</ele><time>2026-09-20T10:54:24Z</time></trkpt>
<trkpt lat="43.175971" lon="44.921080"><ele>525.5</ele><time>2026-09-20T10:54:36Z</time></trkpt>
<trkpt lat="43.175538" lon="44.921371"><ele>523.0</ele><time>2026-09-20T10:54:48Z</time></trkpt>
<trkpt lat="43.175117" lon="44.921662"><ele>520.4</ele><time>2026-09-20T10:55:00Z</time></trkpt>
<trkpt lat="43.174707" lon="44.921953"><ele>517.8</ele><time>2026-09-20T10:55:12Z</time></trkpt>
<trkpt lat="43.174310" lon="44.922244"><ele>515.2</ele><time>2026-09-20T10:55:24Z</time></trkpt>
<trkpt lat="43.173923" lon="44.922538"><ele>512.6</ele><time>2026-09-20T10:55:36Z</time></trkpt>
<trkpt lat="43.173546" lon="44.922834"><ele>510.0</ele><time>2026-09-20T10:55:48Z</time></trkpt>
<trkpt lat="43.173177" lon="44.923133"><ele>507.3</ele><time>2026-09-20T10:56:00Z</time></trkpt>
<trkpt lat="43.172814" lon="44.923437"><ele>504.6</ele><time>2026-09-20T10:56:12Z</time></trkpt>
<trkpt lat="43.172456" lon="44.923745"><ele>502.0</ele><time>2026-09-20T10:56:24Z</time></trkpt>
<trkpt lat="43.172099" lon="44.924058"><ele>499.3</ele><time>2026-09-20T10:56:36Z</time></trkpt>
<trkpt lat="43.171741" lon="44.924377"><ele>496.6</ele><time>2026-09-20T10:56:48Z</time></trkpt>
<trkpt lat="43.171381" lon="44.924702"><ele>494.0</ele><time>2026-09-20T10:57:00Z</time></trkpt>
<trkpt lat="43.171015" lon="44.925033"><ele>491.3</ele><time>2026-09-20T10:57:12Z</time></trkpt>
<trkpt lat="43.170642" lon="44.925370"><ele>488.7</ele><time>2026-09-20T10:57:24Z</time></trkpt>
<trkpt lat="43.170260" lon="44.925714"><ele>486.1</ele><time>2026-09-20T10:57:36Z</time></trkpt>
<trkpt lat="43.169868" lon="44.926063"><ele>483.4</ele><time>2026-09-20T10:57:48Z</time></trkpt>
<trkpt lat="43.169465" lon="44.926417"><ele>480.8</ele><time>2026-09-20T10:58:00Z</time></trkpt>
<trkpt lat="43.169049" lon="44.926777"><ele>478.3</ele><time>2026-09-20T10:58:12Z</time></trkpt>
<trkpt lat="43.168622" lon="44.927141"><ele>475.7</ele><time>2026-09-20T10:58:24Z</time></trkpt>
<trkpt lat="43.168183" lon="44.927509"><ele>473.2</ele><time>2026-09-20T10:58:36Z</time></trkpt>
<trkpt lat="43.167733" lon="44.927880"><ele>470.7</ele><time>2026-09-20T10:58:48Z</time></trkpt>
<trkpt lat="43.167274" lon="44.928254"><ele>468.2</ele><time>2026-09-20T10:59:00Z</time></trkpt>
<trkpt lat="43.166808" lon="44.928629"><ele>465.8</ele><time>2026-09-20T10:59:12Z</time></trkpt>
<trkpt lat="43.166336" lon="44.929005"><ele>463.4</ele><time>2026-09-20T10:59:24Z</time></trkpt>
<trkpt lat="43.165860" lon="44.929381"><ele>461.0</ele><time>2026-09-20T10:59:36Z</time></trkpt>
<trkpt lat="43.165384" lon="44.929756"><ele>458.7</ele><time>2026-09-20T10:59:48Z</time></trkpt>
<trkpt lat="43.164909" lon="44.930129"><ele>456.5</ele><time>2026-09-20T11:00:00Z</time></trkpt>
</trkseg></trk>
</gpx>
